{
    "links": {
        "self": "http://www.neowsapp.com/rest/v1/neo/3740845?api_key=iIulBulltgU6a56xZRHN4H3l9WmuAYTsLGpBGhQ2"
    },
    "id": "3740845",
    "neo_reference_id": "3740845",
    "name": "(2016 AT193)",
    "designation": "2016 AT193",
    "nasa_jpl_url": "http://ssd.jpl.nasa.gov/sbdb.cgi?sstr=3740845",
    "absolute_magnitude_h": 26.6,
    "estimated_diameter": {
        "kilometers": {
            "estimated_diameter_min": 0.0127219879,
            "estimated_diameter_max": 0.0284472297
        },
        "meters": {
            "estimated_diameter_min": 12.7219878539,
            "estimated_diameter_max": 28.4472296503
        },
        "miles": {
            "estimated_diameter_min": 0.0079050743,
            "estimated_diameter_max": 0.0176762835
        },
        "feet": {
            "estimated_diameter_min": 41.7388066307,
            "estimated_diameter_max": 93.330808926
        }
    },
    "is_potentially_hazardous_asteroid": false,
    "close_approach_data": [
        {
            "close_approach_date": "2016-01-06",
            "close_approach_date_full": "2016-Jan-06 14:39",
            "epoch_date_close_approach": 1452091140000,
            "relative_velocity": {
                "kilometers_per_second": "14.9901500327",
                "kilometers_per_hour": "53964.5401178658",
                "miles_per_hour": "33531.4666082372"
            },
            "miss_distance": {
                "astronomical": "0.0169296906",
                "lunar": "6.5856496434",
                "kilometers": "2532645.653519022",
                "miles": "1573713.0350536236"
            },
            "orbiting_body": "Earth"
        },
        {
            "close_approach_date": "2017-12-19",
            "close_approach_date_full": "2017-Dec-19 17:56",
            "epoch_date_close_approach": 1513706160000,
            "relative_velocity": {
                "kilometers_per_second": "24.5731373356",
                "kilometers_per_hour": "88463.2944081431",
                "miles_per_hour": "54967.6509059931"
            },
            "miss_distance": {
                "astronomical": "0.320418088",
                "lunar": "124.642636232",
                "kilometers": "47933863.47427256",
                "miles": "29784721.627018928"
            },
            "orbiting_body": "Earth"
        },
        {
            "close_approach_date": "2128-12-26",
            "close_approach_date_full": "2128-Dec-26 09:11",
            "epoch_date_close_approach": 5017108260000,
            "relative_velocity": {
                "kilometers_per_second": "21.5276490238",
                "kilometers_per_hour": "77499.5364856242",
                "miles_per_hour": "48155.1981013035"
            },
            "miss_distance": {
                "astronomical": "0.2183435927",
                "lunar": "84.9356575603",
                "kilometers": "32663736.396067549",
                "miles": "20296304.6443642162"
            },
            "orbiting_body": "Earth"
        }
    ],
    "orbital_data": {
        "orbit_id": "3",
        "orbit_determination_date": "2017-04-06 08:29:02",
        "first_observation_date": "2016-01-02",
        "last_observation_date": "2016-01-03",
        "data_arc_in_days": 1,
        "observations_used": 22,
        "orbit_uncertainty": "8",
        "minimum_orbit_intersection": ".0166805",
        "jupiter_tisserand_invariant": "4.255",
        "epoch_osculation": "2457390.5",
        "eccentricity": ".5321036764559152",
        "semi_major_axis": "1.560456234211471",
        "inclination": "6.774672203457796",
        "ascending_node_longitude": "97.34741582215864",
        "orbital_period": "711.9931506829682",
        "perihelion_distance": ".7301317350389946",
        "perihelion_argument": "83.51702691743866",
        "aphelion_distance": "2.390780733383947",
        "perihelion_time": "2457442.123474443398",
        "mean_anomaly": "333.8979921621487",
        "mean_motion": ".5056228415325003",
        "equinox": "J2000",
        "orbit_class": {
            "orbit_class_type": "APO",
            "orbit_class_description": "Near-Earth asteroid orbits which cross the Earth’s orbit similar to that of 1862 Apollo",
            "orbit_class_range": "a (semi-major axis) > 1.0 AU; q (perihelion) < 1.017 AU"
        }
    },
    "is_sentry_object": false
}